{
    "links": {
        "self": "http://www.neowsapp.com/rest/v1/neo/3843424?api_key=iIulBulltgU6a56xZRHN4H3l9WmuAYTsLGpBGhQ2"
    },
    "id": "3843424",
    "neo_reference_id": "3843424",
    "name": "(2019 OR3)",
    "designation": "2019 OR3",
    "nasa_jpl_url": "http://ssd.jpl.nasa.gov/sbdb.cgi?sstr=3843424",
    "absolute_magnitude_h": 26.3,
    "estimated_diameter": {
        "kilometers": {
            "estimated_diameter_min": 0.0146067964,
            "estimated_diameter_max": 0.0326617897
        },
        "meters": {
            "estimated_diameter_min": 14.6067964271,
            "estimated_diameter_max": 32.6617897446
        },
        "miles": {
            "estimated_diameter_min": 0.0090762397,
            "estimated_diameter_max": 0.020295089
        },
        "feet": {
            "estimated_diameter_min": 47.92256199,
            "estimated_diameter_max": 107.1581062656
        }
    },
    "is_potentially_hazardous_asteroid": false,
    "close_approach_data": [
        {
            "close_approach_date": "2019-07-29",
            "close_approach_date_full": "2019-Jul-29 03:25",
            "epoch_date_close_approach": 1564370700000,
            "relative_velocity": {
                "kilometers_per_second": "5.9754376069",
                "kilometers_per_hour": "21511.5753850139",
                "miles_per_hour": "13366.4563829827"
            },
            "miss_distance": {
                "astronomical": "0.0843815688",
                "lunar": "32.8244302632",
                "kilometers": "12623302.959738456",
                "miles": "7843756.7393484528"
            },
            "orbiting_body": "Earth"
        }
    ],
    "orbital_data": {
        "orbit_id": "3",
        "orbit_determination_date": "2019-08-08 05:55:48",
        "first_observation_date": "2019-07-29",
        "last_observation_date": "2019-08-07",
        "data_arc_in_days": 9,
        "observations_used": 17,
        "orbit_uncertainty": "8",
        "minimum_orbit_intersection": ".0843084",
        "jupiter_tisserand_invariant": "3.594",
        "epoch_osculation": "2458694.5",
        "eccentricity": ".4753745074013204",
        "semi_major_axis": "2.095963967880151",
        "inclination": "5.416098729065099",
        "ascending_node_longitude": "305.2886626548474",
        "orbital_period": "1108.342904653179",
        "perihelion_distance": "1.099596129118207",
        "perihelion_argument": "2.053557064568822",
        "aphelion_distance": "3.092331806642095",
        "perihelion_time": "2458695.226017759264",
        "mean_anomaly": "359.7641827342082",
        "mean_motion": ".3248092250950537",
        "equinox": "J2000",
        "orbit_class": {
            "orbit_class_type": "AMO",
            "orbit_class_description": "Near-Earth asteroid orbits similar to that of 1221 Amor",
            "orbit_class_range": "1.017 AU < q (perihelion) < 1.3 AU"
        }
    },
    "is_sentry_object": false
}